{
    "links": {
        "self": "http://www.neowsapp.com/rest/v1/neo/3654485?api_key=iIulBulltgU6a56xZRHN4H3l9WmuAYTsLGpBGhQ2"
    },
    "id": "3654485",
    "neo_reference_id": "3654485",
    "name": "(2013 XU21)",
    "designation": "2013 XU21",
    "nasa_jpl_url": "http://ssd.jpl.nasa.gov/sbdb.cgi?sstr=3654485",
    "absolute_magnitude_h": 26.2,
    "estimated_diameter": {
        "kilometers": {
            "estimated_diameter_min": 0.0152951935,
            "estimated_diameter_max": 0.0342010925
        },
        "meters": {
            "estimated_diameter_min": 15.2951935344,
            "estimated_diameter_max": 34.201092472
        },
        "miles": {
            "estimated_diameter_min": 0.0095039897,
            "estimated_diameter_max": 0.021251567
        },
        "feet": {
            "estimated_diameter_min": 50.1810827555,
            "estimated_diameter_max": 112.2083122258
        }
    },
    "is_potentially_hazardous_asteroid": false,
    "close_approach_data": [
        {
            "close_approach_date": "2013-12-14",
            "close_approach_date_full": "2013-Dec-14 08:20",
            "epoch_date_close_approach": 1387009200000,
            "relative_velocity": {
                "kilometers_per_second": "10.7049856931",
                "kilometers_per_hour": "38537.9484952547",
                "miles_per_hour": "23945.9824969542"
            },
            "miss_distance": {
                "astronomical": "0.0157628891",
                "lunar": "6.1317638599",
                "kilometers": "2358094.634406217",
                "miles": "1465252.0611791146"
            },
            "orbiting_body": "Earth"
        }
    ],
    "orbital_data": {
        "orbit_id": "6",
        "orbit_determination_date": "2017-04-06 08:43:19",
        "first_observation_date": "2013-12-13",
        "last_observation_date": "2013-12-14",
        "data_arc_in_days": 1,
        "observations_used": 41,
        "orbit_uncertainty": "8",
        "minimum_orbit_intersection": ".00693743",
        "jupiter_tisserand_invariant": "3.193",
        "epoch_osculation": "2456640.5",
        "eccentricity": ".6184202039830474",
        "semi_major_axis": "2.459817517558661",
        "inclination": "4.401150194107116",
        "ascending_node_longitude": "80.40822923648665",
        "orbital_period": "1409.135518711879",
        "perihelion_distance": ".9386166665889606",
        "perihelion_argument": "34.09255853144629",
        "aphelion_distance": "3.981018368528361",
        "perihelion_time": "2456664.626993837982",
        "mean_anomaly": "353.8361373577374",
        "mean_motion": ".2554757830028185",
        "equinox": "J2000",
        "orbit_class": {
            "orbit_class_type": "APO",
            "orbit_class_description": "Near-Earth asteroid orbits which cross the Earth’s orbit similar to that of 1862 Apollo",
            "orbit_class_range": "a (semi-major axis) > 1.0 AU; q (perihelion) < 1.017 AU"
        }
    },
    "is_sentry_object": false
}